OBJECT_NAME,OBJECT_ID,EPOCH,MEAN_MOTION,ECCENTRICITY,INCLINATION,RA_OF_ASC_NODE,ARG_OF_PERICENTER,MEAN_ANOMALY,EPHEMERIS_TYPE,CLASSIFICATION_TYPE,NORAD_CAT_ID,ELEMENT_SET_NO,REV_AT_EPOCH,BSTAR,MEAN_MOTION_DOT,MEAN_MOTION_DDOT
STARLINK-6303,2023-061V,2026-06-28T14:41:47.835744,15.27576949,.00011945,43.0035,291.4811,271.0205,89.0509,0,U,56393,999,17371,.14631696E-4,.141E-5,0
STARLINK-6305,2023-061W,2026-06-28T13:16:54.687936,15.27596305,.00015026,43.0018,280.6156,264.6128,95.4552,0,U,56394,999,17383,-.19731876E-3,-.5691E-4,0
STARLINK-6273,2023-061X,2026-06-27T15:05:58.767360,15.27574142,.00017153,43.0043,286.5710,278.4105,81.6552,0,U,56395,999,17439,.1102379E-5,-.232E-5,0
STARLINK-6302,2023-061Y,2026-06-28T13:33:34.148448,15.27572749,.0001359,43.0013,280.6997,270.1650,89.9046,0,U,56396,999,16896,.19445659E-4,.273E-5,0
STARLINK-6271,2023-061Z,2026-06-28T14:27:09.861408,15.27629535,.00028151,43.0080,280.9724,256.3171,103.7368,0,U,56397,999,17383,.16772375E-3,.4362E-4,0
STARLINK-6288,2023-061AA,2026-06-28T13:39:06.871392,15.27575816,.00012134,43.0014,280.7242,276.7144,83.3569,0,U,56398,999,17383,.2809678E-4,.511E-5,0
STARLINK-6277,2023-061AB,2026-06-28T15:02:11.077440,15.27569134,.00012766,43.0026,280.3044,269.6442,90.4263,0,U,56399,999,17384,.1927781E-5,-.209E-5,0
STARLINK-6267,2023-061AC,2026-06-28T13:44:40.064352,15.27573376,.00012384,43.0031,280.7570,270.8021,89.2688,0,U,56400,999,17383,.37587528E-4,.772E-5,0
STARLINK-6287,2023-061AG,2026-06-27T16:17:56.184000,15.27572104,.00015111,43.0043,286.0791,277.3962,82.6718,0,U,56404,999,17369,-.7725492E-5,-.475E-5,0
STARLINK-6285,2023-061AH,2026-06-28T13:48:22.264416,15.27572838,.00012625,43.0016,280.7719,267.3663,92.7044,0,U,56405,999,17383,.51901351E-4,.1166E-4,0
STARLINK-6283,2023-061AJ,2026-06-28T00:29:04.085952,15.27586052,.00022479,43.0031,284.3358,290.8705,69.1906,0,U,56406,999,17374,.262833E-6,-.255E-5,0
STARLINK-6282,2023-061AK,2026-06-28T14:10:33.987360,15.27577336,.00011627,43.0028,280.8844,270.5467,89.5251,0,U,56407,999,17383,.23991666E-4,.398E-5,0
STARLINK-6289,2023-061AL,2026-06-28T14:52:54.737472,15.27576218,.00015569,43.0024,280.2316,271.4022,88.6651,0,U,56408,999,17384,.42251171E-4,.9E-5,0
STARLINK-6241,2023-061AM,2026-06-27T16:21:38.142144,15.27569161,.00018402,43.0066,286.1006,271.2937,88.7704,0,U,56409,999,17369,-.13930395E-4,-.646E-5,0
STARLINK-6281,2023-061AN,2026-06-28T13:09:30.345696,15.27576635,.00016668,43.0009,280.5650,272.7603,87.3058,0,U,56410,999,17383,.42120502E-4,.897E-5,0
STARLINK-6279,2023-061AP,2026-06-28T00:17:58.284096,15.27571965,.00013309,43.0015,284.2872,298.6810,61.3908,0,U,56411,999,17374,.4891915E-5,-.128E-5,0
STARLINK-6278,2023-061AQ,2026-06-28T15:04:01.307424,15.27573325,.0001342,43.0025,280.3022,268.8185,91.2513,0,U,56412,999,17384,.16150367E-4,.182E-5,0
STARLINK-6258,2023-061AR,2026-06-28T13:07:51.855744,15.27578711,.00017658,43.0042,281.4136,272.3435,87.7215,0,U,56413,999,17382,.84000505E-4,.205E-4,0
STARLINK-5136,2023-061AS,2026-06-28T14:01:18.805152,15.27578132,.00013265,43.0015,280.8290,276.3517,83.7183,0,U,56414,999,17383,.36413741E-4,.74E-5,0
STARLINK-6260,2023-061AU,2026-06-28T13:34:55.839648,15.27570199,.0001221,43.0015,273.6565,267.0265,93.0447,0,U,56416,999,17391,.49799465E-4,.1108E-4,0
STARLINK-6261,2023-061AV,2026-06-28T13:40:58.382688,15.27568984,.00012444,43.0053,280.7268,270.1127,89.9582,0,U,56417,999,17383,.30425153E-4,.575E-5,0
STARLINK-5356,2023-061AW,2026-06-28T14:22:48.133344,15.27587379,.00015169,43.0017,273.0402,267.1947,92.8731,0,U,56418,999,17392,.88394393E-4,.2172E-4,0
STARLINK-5350,2023-061AX,2026-06-28T14:06:52.731648,15.27569793,.00015604,43.0010,280.8621,268.8313,91.2360,0,U,56419,999,17383,-.42338431E-4,-.1427E-4,0
STARLINK-6272,2023-061AY,2026-06-27T18:09:55.594944,15.27542149,.00004954,42.9994,277.8988,299.6478,60.4325,0,U,56420,999,17379,.47691729E-3,.1287E-3,0
STARLINK-6270,2023-061AZ,2026-06-28T14:57:16.643520,15.27575848,.00008939,43.0033,276.6298,268.6285,91.4464,0,U,56421,999,17388,.29252345E-4,.543E-5,0
STARLINK-6236,2023-061BA,2026-06-28T14:48:43.844832,15.27574767,.00017192,43.0012,273.1762,271.8081,88.2574,0,U,56422,999,17392,.32502449E-4,.632E-5,0
STARLINK-6239,2023-061BB,2026-06-28T14:39:28.893312,15.27573523,.00012581,43.0022,273.1275,270.9591,89.1117,0,U,56423,999,17392,.24523711E-4,.413E-5,0
STARLINK-6242,2023-061BC,2026-06-28T14:59:49.838496,15.27576809,.00009558,43.0020,273.2349,280.6417,79.4327,0,U,56424,999,17392,.16904784E-4,.203E-5,0
STARLINK-6224,2023-061BD,2026-06-28T14:54:15.020352,15.27591203,.00013225,43.0008,273.2046,271.5624,88.5076,0,U,56425,999,17392,.83708078E-4,.2043E-4,0
STARLINK-5352,2023-061BE,2026-06-28T13:42:19.806912,15.27565001,.00012787,43.0007,273.6782,270.6415,89.4291,0,U,56426,999,17391,.12109468E-3,.307E-4,0
