STARLINK-6303           
1 56393U 23061V   26179.61235921  .00000141  00000+0  14632-4 0  9997
2 56393  43.0035 291.4811 0001194 271.0205  89.0509 15.27576949173716
STARLINK-6305           
1 56394U 23061W   26179.55341074 -.00005691  00000+0 -19732-3 0  9990
2 56394  43.0018 280.6156 0001502 264.6128  95.4552 15.27596305173835
STARLINK-6273           
1 56395U 23061X   26178.62915240 -.00000232  00000+0  11024-5 0  9993
2 56395  43.0043 286.5710 0001715 278.4105  81.6552 15.27574142174393
STARLINK-6302           
1 56396U 23061Y   26179.56497857  .00000273  00000+0  19446-4 0  9996
2 56396  43.0013 280.6997 0001359 270.1650  89.9046 15.27572749168967
STARLINK-6271           
1 56397U 23061Z   26179.60219747  .00004362  00000+0  16772-3 0  9993
2 56397  43.0080 280.9724 0002815 256.3171 103.7368 15.27629535173835
STARLINK-6288           
1 56398U 23061AA  26179.56882953  .00000511  00000+0  28097-4 0  9990
2 56398  43.0014 280.7242 0001213 276.7144  83.3569 15.27575816173831
STARLINK-6277           
1 56399U 23061AB  26179.62651710 -.00000209  00000+0  19278-5 0  9990
2 56399  43.0026 280.3044 0001276 269.6442  90.4263 15.27569134173849
STARLINK-6267           
1 56400U 23061AC  26179.57268593  .00000772  00000+0  37588-4 0  9997
2 56400  43.0031 280.7570 0001238 270.8021  89.2688 15.27573376173830
STARLINK-6287           
1 56404U 23061AG  26178.67912250 -.00000475  00000+0 -77255-5 0  9995
2 56404  43.0043 286.0791 0001511 277.3962  82.6718 15.27572104173694
STARLINK-6285           
1 56405U 23061AH  26179.57525769  .00001166  00000+0  51901-4 0  9996
2 56405  43.0016 280.7719 0001262 267.3663  92.7044 15.27572838173830
STARLINK-6283           
1 56406U 23061AJ  26179.02018618 -.00000255  00000+0  26283-6 0  9993
2 56406  43.0031 284.3358 0002247 290.8705  69.1906 15.27586052173747
STARLINK-6282           
1 56407U 23061AK  26179.59067115  .00000398  00000+0  23992-4 0  9991
2 56407  43.0028 280.8844 0001162 270.5467  89.5251 15.27577336173834
STARLINK-6289           
1 56408U 23061AL  26179.62007798  .00000900  00000+0  42251-4 0  9995
2 56408  43.0024 280.2316 0001556 271.4022  88.6651 15.27576218173846
STARLINK-6241           
1 56409U 23061AM  26178.68169146 -.00000646  00000+0 -13930-4 0  9998
2 56409  43.0066 286.1006 0001840 271.2937  88.7704 15.27569161173695
STARLINK-6281           
1 56410U 23061AN  26179.54826789  .00000897  00000+0  42121-4 0  9999
2 56410  43.0009 280.5650 0001666 272.7603  87.3058 15.27576635173836
STARLINK-6279           
1 56411U 23061AP  26179.01248014 -.00000128  00000+0  48919-5 0  9991
2 56411  43.0015 284.2872 0001330 298.6810  61.3908 15.27571965173743
STARLINK-6278           
1 56412U 23061AQ  26179.62779291  .00000182  00000+0  16150-4 0  9995
2 56412  43.0025 280.3022 0001342 268.8185  91.2513 15.27573325173843
STARLINK-6258           
1 56413U 23061AR  26179.54712796  .00002050  00000+0  84001-4 0  9990
2 56413  43.0042 281.4136 0001765 272.3435  87.7215 15.27578711173829
STARLINK-5136           
1 56414U 23061AS  26179.58424543  .00000740  00000+0  36414-4 0  9994
2 56414  43.0015 280.8290 0001326 276.3517  83.7183 15.27578132173830
STARLINK-6260           
1 56416U 23061AU  26179.56592407  .00001108  00000+0  49799-4 0  9998
2 56416  43.0015 273.6565 0001221 267.0265  93.0447 15.27570199173919
STARLINK-6261           
1 56417U 23061AV  26179.57012017  .00000575  00000+0  30425-4 0  9997
2 56417  43.0053 280.7268 0001244 270.1127  89.9582 15.27568984173832
STARLINK-5356           
1 56418U 23061AW  26179.59916821  .00002172  00000+0  88394-4 0  9999
2 56418  43.0017 273.0402 0001516 267.1947  92.8731 15.27587379173924
STARLINK-5350           
1 56419U 23061AX  26179.58811032 -.00001427  00000+0 -42338-4 0  9999
2 56419  43.0010 280.8621 0001560 268.8313  91.2360 15.27569793173832
STARLINK-6272           
1 56420U 23061AY  26178.75689346  .00012870  00000+0  47692-3 0  9999
2 56420  42.9994 277.8988 0000495 299.6478  60.4325 15.27542149173795
STARLINK-6270           
1 56421U 23061AZ  26179.62310930  .00000543  00000+0  29252-4 0  9994
2 56421  43.0033 276.6298 0000893 268.6285  91.4464 15.27575848173887
STARLINK-6236           
1 56422U 23061BA  26179.61717413  .00000632  00000+0  32502-4 0  9992
2 56422  43.0012 273.1762 0001719 271.8081  88.2574 15.27574767173921
STARLINK-6239           
1 56423U 23061BB  26179.61075108  .00000413  00000+0  24524-4 0  9993
2 56423  43.0022 273.1275 0001258 270.9591  89.1117 15.27573523173928
STARLINK-6242           
1 56424U 23061BC  26179.62488239  .00000203  00000+0  16905-4 0  9999
2 56424  43.0020 273.2349 0000955 280.6417  79.4327 15.27576809173923
STARLINK-6224           
1 56425U 23061BD  26179.62100718  .00002043  00000+0  83708-4 0  9992
2 56425  43.0008 273.2046 0001322 271.5624  88.5076 15.27591203173929
STARLINK-5352           
1 56426U 23061BE  26179.57106258  .00003070  00000+0  12109-3 0  9999
2 56426  43.0007 273.6782 0001278 270.6415  89.4291 15.27565001173913
